STARLINK-2568           
1 48406U 21038BF  25320.73689492  .00009210  00000+0  63602-3 0  9997
2 48406  53.0512 128.6820 0002441  94.3201 265.8067 15.06421446250281
STARLINK-2595           
1 48407U 21038BG  25320.91668980  .00194876  00000+0  17161-2 0  9998
2 48407  53.0348  50.3558 0007018 353.8671 157.4470 15.67604063  5947
STARLINK-2592           
1 48408U 21038BH  25320.19876887  .00002828  00000+0  20866-3 0  9998
2 48408  53.0550 131.0946 0001289 106.4268 253.6863 15.06402962250190
STARLINK-2563           
1 48410U 21038BK  25320.69128352  .00012583  00000+0  86166-3 0  9997
2 48410  53.0539  83.8877 0001416  35.0318 325.0764 15.06421232250917
STARLINK-2505           
1 48411U 21038BL  25320.70832590  .00010933  00000+0  75106-3 0  9995
2 48411  53.0542  78.8088 0001074 100.2742 259.8369 15.06432302250988
STARLINK-2581           
1 48412U 21038BM  25320.66046794  .00009925  00000+0  68374-3 0  9992
2 48412  53.0544  79.4606 0001041  96.8143 263.2964 15.06425868250971
STARLINK-2461           
1 48428U 21040A   25320.33652146  .00008517  00000+0  58991-3 0  9990
2 48428  53.0554 335.4799 0001204  85.1501 274.9626 15.06404749249479
STARLINK-2700           
1 48431U 21040D   25320.68343016  .00026506  00000+0  17920-2 0  9999
2 48431  53.0534 298.9234 0001497  89.9561 270.1599 15.06392665250012
STARLINK-2680           
1 48432U 21040E   25320.66461352  .00009316  00000+0  64299-3 0  9994
2 48432  53.0547 294.4022 0001550  94.1472 265.9694 15.06430300250075
STARLINK-2699           
1 48433U 21040F   25320.21261725  .00022792  00000+0  15424-2 0  9996
2 48433  53.0534 301.3156 0001083 103.6131 256.4979 15.06439193249930
STARLINK-2692           
1 48434U 21040G   25320.24351322  .00015024  00000+0  10244-2 0  9998
2 48434  53.0537 306.4075 0001564  96.6247 263.4920 15.06435887249876
STARLINK-2633           
1 48435U 21040H   25320.71433565  .00005176  00000+0  36604-3 0  9997
2 48435  53.0544 313.7945 0001839  86.1737 273.9463 15.06409405249803
STARLINK-2639           
1 48436U 21040J   25320.30564619  .00018728  00000+0  12713-2 0  9999
2 48436  53.0545 330.6212 0001464  62.0761 298.0376 15.06444068249539
STARLINK-2642           
1 48437U 21040K   25320.35633270  .00016138  00000+0  10988-2 0  9990
2 48437  53.0556 340.3922 0001283 103.8940 256.2192 15.06434169249409
STARLINK-2640           
1 48438U 21040L   25320.32780607  .00023748  00000+0  16063-2 0  9990
2 48438  53.0551 330.7864 0001373  84.8370 275.2776 15.06436460249537
STARLINK-2583           
1 48439U 21040M   25320.29829554  .00003928  00000+0  28260-3 0  9993
2 48439  53.0568 330.6535 0001695  66.3188 293.7979 15.06379631249535
