[{"OBJECT_NAME":"STARLINK-2568","OBJECT_ID":"2021-038BF","EPOCH":"2025-11-16T17:41:07.721088","MEAN_MOTION":15.06421446,"ECCENTRICITY":0.0002441,"INCLINATION":53.0512,"RA_OF_ASC_NODE":128.682,"ARG_OF_PERICENTER":94.3201,"MEAN_ANOMALY":265.8067,"EPHEMERIS_TYPE":0,"CLASSIFICATION_TYPE":"U","NORAD_CAT_ID":48406,"ELEMENT_SET_NO":999,"REV_AT_EPOCH":25028,"BSTAR":0.00063602,"MEAN_MOTION_DOT":9.21e-5,"MEAN_MOTION_DDOT":0},{"OBJECT_NAME":"STARLINK-2595","OBJECT_ID":"2021-038BG","EPOCH":"2025-11-16T22:00:01.998720","MEAN_MOTION":15.67604063,"ECCENTRICITY":0.0007018,"INCLINATION":53.0348,"RA_OF_ASC_NODE":50.3558,"ARG_OF_PERICENTER":353.8671,"MEAN_ANOMALY":157.447,"EPHEMERIS_TYPE":0,"CLASSIFICATION_TYPE":"U","NORAD_CAT_ID":48407,"ELEMENT_SET_NO":999,"REV_AT_EPOCH":594,"BSTAR":0.0017161,"MEAN_MOTION_DOT":0.00194876,"MEAN_MOTION_DDOT":0},{"OBJECT_NAME":"STARLINK-2592","OBJECT_ID":"2021-038BH","EPOCH":"2025-11-16T04:46:13.630368","MEAN_MOTION":15.06402962,"ECCENTRICITY":0.0001289,"INCLINATION":53.055,"RA_OF_ASC_NODE":131.0946,"ARG_OF_PERICENTER":106.4268,"MEAN_ANOMALY":253.6863,"EPHEMERIS_TYPE":0,"CLASSIFICATION_TYPE":"U","NORAD_CAT_ID":48408,"ELEMENT_SET_NO":999,"REV_AT_EPOCH":25019,"BSTAR":0.00020866498,"MEAN_MOTION_DOT":2.828e-5,"MEAN_MOTION_DDOT":0},{"OBJECT_NAME":"STARLINK-2563","OBJECT_ID":"2021-038BK","EPOCH":"2025-11-16T16:35:26.896128","MEAN_MOTION":15.06421232,"ECCENTRICITY":0.0001416,"INCLINATION":53.0539,"RA_OF_ASC_NODE":83.8877,"ARG_OF_PERICENTER":35.0318,"MEAN_ANOMALY":325.0764,"EPHEMERIS_TYPE":0,"CLASSIFICATION_TYPE":"U","NORAD_CAT_ID":48410,"ELEMENT_SET_NO":999,"REV_AT_EPOCH":25091,"BSTAR":0.00086166,"MEAN_MOTION_DOT":0.00012583,"MEAN_MOTION_DDOT":0},{"OBJECT_NAME":"STARLINK-2505","OBJECT_ID":"2021-038BL","EPOCH":"2025-11-16T16:59:59.357760","MEAN_MOTION":15.06432302,"ECCENTRICITY":0.0001074,"INCLINATION":53.0542,"RA_OF_ASC_NODE":78.8088,"ARG_OF_PERICENTER":100.2742,"MEAN_ANOMALY":259.8369,"EPHEMERIS_TYPE":0,"CLASSIFICATION_TYPE":"U","NORAD_CAT_ID":48411,"ELEMENT_SET_NO":999,"REV_AT_EPOCH":25098,"BSTAR":0.00075106,"MEAN_MOTION_DOT":0.00010933,"MEAN_MOTION_DDOT":0},{"OBJECT_NAME":"STARLINK-2581","OBJECT_ID":"2021-038BM","EPOCH":"2025-11-16T15:51:04.430016","MEAN_MOTION":15.06425868,"ECCENTRICITY":0.0001041,"INCLINATION":53.0544,"RA_OF_ASC_NODE":79.4606,"ARG_OF_PERICENTER":96.8143,"MEAN_ANOMALY":263.2964,"EPHEMERIS_TYPE":0,"CLASSIFICATION_TYPE":"U","NORAD_CAT_ID":48412,"ELEMENT_SET_NO":999,"REV_AT_EPOCH":25097,"BSTAR":0.00068374,"MEAN_MOTION_DOT":9.925e-5,"MEAN_MOTION_DDOT":0},{"OBJECT_NAME":"STARLINK-2461","OBJECT_ID":"2021-040A","EPOCH":"2025-11-16T08:04:35.454144","MEAN_MOTION":15.06404749,"ECCENTRICITY":0.00012042,"INCLINATION":53.0554,"RA_OF_ASC_NODE":335.4799,"ARG_OF_PERICENTER":85.1501,"MEAN_ANOMALY":274.9626,"EPHEMERIS_TYPE":0,"CLASSIFICATION_TYPE":"U","NORAD_CAT_ID":48428,"ELEMENT_SET_NO":999,"REV_AT_EPOCH":24947,"BSTAR":0.00058990603,"MEAN_MOTION_DOT":8.517e-5,"MEAN_MOTION_DDOT":0},{"OBJECT_NAME":"STARLINK-2700","OBJECT_ID":"2021-040D","EPOCH":"2025-11-16T16:24:08.365824","MEAN_MOTION":15.06392665,"ECCENTRICITY":0.0001497,"INCLINATION":53.0534,"RA_OF_ASC_NODE":298.9234,"ARG_OF_PERICENTER":89.9561,"MEAN_ANOMALY":270.1599,"EPHEMERIS_TYPE":0,"CLASSIFICATION_TYPE":"U","NORAD_CAT_ID":48431,"ELEMENT_SET_NO":999,"REV_AT_EPOCH":25001,"BSTAR":0.001792,"MEAN_MOTION_DOT":0.00026506,"MEAN_MOTION_DDOT":0},{"OBJECT_NAME":"STARLINK-2680","OBJECT_ID":"2021-040E","EPOCH":"2025-11-16T15:57:02.608128","MEAN_MOTION":15.064303,"ECCENTRICITY":0.000155,"INCLINATION":53.0547,"RA_OF_ASC_NODE":294.4022,"ARG_OF_PERICENTER":94.1472,"MEAN_ANOMALY":265.9694,"EPHEMERIS_TYPE":0,"CLASSIFICATION_TYPE":"U","NORAD_CAT_ID":48432,"ELEMENT_SET_NO":999,"REV_AT_EPOCH":25007,"BSTAR":0.00064299,"MEAN_MOTION_DOT":9.316e-5,"MEAN_MOTION_DDOT":0},{"OBJECT_NAME":"STARLINK-2699","OBJECT_ID":"2021-040F","EPOCH":"2025-11-16T05:06:10.130400","MEAN_MOTION":15.06439193,"ECCENTRICITY":0.00010832,"INCLINATION":53.0534,"RA_OF_ASC_NODE":301.3156,"ARG_OF_PERICENTER":103.6131,"MEAN_ANOMALY":256.4979,"EPHEMERIS_TYPE":0,"CLASSIFICATION_TYPE":"U","NORAD_CAT_ID":48433,"ELEMENT_SET_NO":999,"REV_AT_EPOCH":24993,"BSTAR":0.0015424201,"MEAN_MOTION_DOT":0.00022792,"MEAN_MOTION_DDOT":0},{"OBJECT_NAME":"STARLINK-2692","OBJECT_ID":"2021-040G","EPOCH":"2025-11-16T05:50:39.542208","MEAN_MOTION":15.06435887,"ECCENTRICITY":0.00015646,"INCLINATION":53.0537,"RA_OF_ASC_NODE":306.4075,"ARG_OF_PERICENTER":96.6247,"MEAN_ANOMALY":263.492,"EPHEMERIS_TYPE":0,"CLASSIFICATION_TYPE":"U","NORAD_CAT_ID":48434,"ELEMENT_SET_NO":999,"REV_AT_EPOCH":24987,"BSTAR":0.0010243782,"MEAN_MOTION_DOT":0.00015024,"MEAN_MOTION_DDOT":0},{"OBJECT_NAME":"STARLINK-2633","OBJECT_ID":"2021-040H","EPOCH":"2025-11-16T17:08:38.600160","MEAN_MOTION":15.06409405,"ECCENTRICITY":0.0001839,"INCLINATION":53.0544,"RA_OF_ASC_NODE":313.7945,"ARG_OF_PERICENTER":86.1737,"MEAN_ANOMALY":273.9463,"EPHEMERIS_TYPE":0,"CLASSIFICATION_TYPE":"U","NORAD_CAT_ID":48435,"ELEMENT_SET_NO":999,"REV_AT_EPOCH":24980,"BSTAR":0.00036604,"MEAN_MOTION_DOT":5.176e-5,"MEAN_MOTION_DDOT":0},{"OBJECT_NAME":"STARLINK-2639","OBJECT_ID":"2021-040J","EPOCH":"2025-11-16T07:20:07.830816","MEAN_MOTION":15.06444068,"ECCENTRICITY":0.00014646,"INCLINATION":53.0545,"RA_OF_ASC_NODE":330.6212,"ARG_OF_PERICENTER":62.0761,"MEAN_ANOMALY":298.0376,"EPHEMERIS_TYPE":0,"CLASSIFICATION_TYPE":"U","NORAD_CAT_ID":48436,"ELEMENT_SET_NO":999,"REV_AT_EPOCH":24953,"BSTAR":0.0012713399,"MEAN_MOTION_DOT":0.00018728,"MEAN_MOTION_DDOT":0},{"OBJECT_NAME":"STARLINK-2642","OBJECT_ID":"2021-040K","EPOCH":"2025-11-16T08:33:07.145280","MEAN_MOTION":15.06434169,"ECCENTRICITY":0.00012833,"INCLINATION":53.0556,"RA_OF_ASC_NODE":340.3922,"ARG_OF_PERICENTER":103.894,"MEAN_ANOMALY":256.2192,"EPHEMERIS_TYPE":0,"CLASSIFICATION_TYPE":"U","NORAD_CAT_ID":48437,"ELEMENT_SET_NO":999,"REV_AT_EPOCH":24940,"BSTAR":0.0010988356,"MEAN_MOTION_DOT":0.00016138,"MEAN_MOTION_DDOT":0},{"OBJECT_NAME":"STARLINK-2640","OBJECT_ID":"2021-040L","EPOCH":"2025-11-16T07:52:02.444448","MEAN_MOTION":15.0643646,"ECCENTRICITY":0.00013731,"INCLINATION":53.0551,"RA_OF_ASC_NODE":330.7864,"ARG_OF_PERICENTER":84.837,"MEAN_ANOMALY":275.2776,"EPHEMERIS_TYPE":0,"CLASSIFICATION_TYPE":"U","NORAD_CAT_ID":48438,"ELEMENT_SET_NO":999,"REV_AT_EPOCH":24953,"BSTAR":0.001606275,"MEAN_MOTION_DOT":0.00023748,"MEAN_MOTION_DDOT":0},{"OBJECT_NAME":"STARLINK-2583","OBJECT_ID":"2021-040M","EPOCH":"2025-11-16T07:09:32.734656","MEAN_MOTION":15.06379631,"ECCENTRICITY":0.00016955,"INCLINATION":53.0568,"RA_OF_ASC_NODE":330.6535,"ARG_OF_PERICENTER":66.3188,"MEAN_ANOMALY":293.7979,"EPHEMERIS_TYPE":0,"CLASSIFICATION_TYPE":"U","NORAD_CAT_ID":48439,"ELEMENT_SET_NO":999,"REV_AT_EPOCH":24953,"BSTAR":0.00028260449,"MEAN_MOTION_DOT":3.928e-5,"MEAN_MOTION_DDOT":0}]
